CCSDS_OMM_VERS = 2.0
CREATION_DATE  = 
ORIGINATOR     = 

OBJECT_NAME    = ENVISAT
OBJECT_ID      = 2002-009A
CENTER_NAME    = EARTH
REF_FRAME      = TEME
TIME_SYSTEM    = UTC
MEAN_ELEMENT_THEORY = SGP/SGP4

EPOCH          = 2025-11-25T20:51:54.845856
MEAN_MOTION    = 14.38989890
ECCENTRICITY   = .000126
INCLINATION    = 98.3576
RA_OF_ASC_NODE = 281.0399
ARG_OF_PERICENTER = 80.6564
MEAN_ANOMALY   = 338.0395

EPHEMERIS_TYPE = 0
CLASSIFICATION_TYPE = U
NORAD_CAT_ID   = 27386
ELEMENT_SET_NO = 999
REV_AT_EPOCH   = 24424
BSTAR          = .71058E-4
MEAN_MOTION_DOT = .177E-5
MEAN_MOTION_DDOT = 0

CCSDS_OMM_VERS = 2.0
CREATION_DATE  = 
ORIGINATOR     = 

OBJECT_NAME    = IDEFIX & ARIANE 42P R/B
OBJECT_ID      = 2002-021B
CENTER_NAME    = EARTH
REF_FRAME      = TEME
TIME_SYSTEM    = UTC
MEAN_ELEMENT_THEORY = SGP/SGP4

EPOCH          = 2025-11-25T19:14:06.371232
MEAN_MOTION    = 14.30931777
ECCENTRICITY   = .001259
INCLINATION    = 98.5764
RA_OF_ASC_NODE = 264.7144
ARG_OF_PERICENTER = 129.4387
MEAN_ANOMALY   = 230.7912

EPHEMERIS_TYPE = 0
CLASSIFICATION_TYPE = U
NORAD_CAT_ID   = 27422
ELEMENT_SET_NO = 999
REV_AT_EPOCH   = 22916
BSTAR          = .16162E-3
MEAN_MOTION_DOT = .381E-5
MEAN_MOTION_DDOT = 0

CCSDS_OMM_VERS = 2.0
CREATION_DATE  = 
ORIGINATOR     = 

OBJECT_NAME    = AQUA
OBJECT_ID      = 2002-022A
CENTER_NAME    = EARTH
REF_FRAME      = TEME
TIME_SYSTEM    = UTC
MEAN_ELEMENT_THEORY = SGP/SGP4

EPOCH          = 2025-11-25T20:24:29.790720
MEAN_MOTION    = 14.61749004
ECCENTRICITY   = .0000592
INCLINATION    = 98.4014
RA_OF_ASC_NODE = 290.4579
ARG_OF_PERICENTER = 87.9739
MEAN_ANOMALY   = 331.4843

EPHEMERIS_TYPE = 0
CLASSIFICATION_TYPE = U
NORAD_CAT_ID   = 27424
ELEMENT_SET_NO = 999
REV_AT_EPOCH   = 25356
BSTAR          = .28002E-3
MEAN_MOTION_DOT = .1347E-4
MEAN_MOTION_DDOT = 0

CCSDS_OMM_VERS = 2.0
CREATION_DATE  = 
ORIGINATOR     = 

OBJECT_NAME    = CZ-4B R/B
OBJECT_ID      = 2002-024C
CENTER_NAME    = EARTH
REF_FRAME      = TEME
TIME_SYSTEM    = UTC
MEAN_ELEMENT_THEORY = SGP/SGP4

EPOCH          = 2025-11-25T17:59:48.127776
MEAN_MOTION    = 14.14522719
ECCENTRICITY   = .0049409
INCLINATION    = 98.9024
RA_OF_ASC_NODE = 18.5790
ARG_OF_PERICENTER = 319.0679
MEAN_ANOMALY   = 152.1451

EPHEMERIS_TYPE = 0
CLASSIFICATION_TYPE = U
NORAD_CAT_ID   = 27432
ELEMENT_SET_NO = 999
REV_AT_EPOCH   = 21454
BSTAR          = .55127E-4
MEAN_MOTION_DOT = .62E-6
MEAN_MOTION_DDOT = 0

CCSDS_OMM_VERS = 2.0
CREATION_DATE  = 
ORIGINATOR     = 

OBJECT_NAME    = MIDORI II (ADEOS-II)
OBJECT_ID      = 2002-056A
CENTER_NAME    = EARTH
REF_FRAME      = TEME
TIME_SYSTEM    = UTC
MEAN_ELEMENT_THEORY = SGP/SGP4

EPOCH          = 2025-11-25T20:14:14.148384
MEAN_MOTION    = 14.29188725
ECCENTRICITY   = .0000754
INCLINATION    = 98.7613
RA_OF_ASC_NODE = 282.7132
ARG_OF_PERICENTER = 21.2568
MEAN_ANOMALY   = 338.8645

EPHEMERIS_TYPE = 0
CLASSIFICATION_TYPE = U
NORAD_CAT_ID   = 27597
ELEMENT_SET_NO = 999
REV_AT_EPOCH   = 19546
BSTAR          = .16327E-3
MEAN_MOTION_DOT = .369E-5
MEAN_MOTION_DDOT = 0

CCSDS_OMM_VERS = 2.0
CREATION_DATE  = 
ORIGINATOR     = 

OBJECT_NAME    = H-2A R/B
OBJECT_ID      = 2002-056E
CENTER_NAME    = EARTH
REF_FRAME      = TEME
TIME_SYSTEM    = UTC
MEAN_ELEMENT_THEORY = SGP/SGP4

EPOCH          = 2025-11-25T19:00:35.197056
MEAN_MOTION    = 14.33656789
ECCENTRICITY   = .0071451
INCLINATION    = 98.3043
RA_OF_ASC_NODE = 289.2263
ARG_OF_PERICENTER = 110.8020
MEAN_ANOMALY   = 315.3298

EPHEMERIS_TYPE = 0
CLASSIFICATION_TYPE = U
NORAD_CAT_ID   = 27601
ELEMENT_SET_NO = 999
REV_AT_EPOCH   = 19922
BSTAR          = .14462E-3
MEAN_MOTION_DOT = .372E-5
MEAN_MOTION_DDOT = 0

CCSDS_OMM_VERS = 2.0
CREATION_DATE  = 
ORIGINATOR     = 

OBJECT_NAME    = CZ-4B R/B
OBJECT_ID      = 2003-049C
CENTER_NAME    = EARTH
REF_FRAME      = TEME
TIME_SYSTEM    = UTC
MEAN_ELEMENT_THEORY = SGP/SGP4

EPOCH          = 2025-11-25T19:33:20.315808
MEAN_MOTION    = 14.54886532
ECCENTRICITY   = .004802
INCLINATION    = 98.6778
RA_OF_ASC_NODE = 315.7407
ARG_OF_PERICENTER = 187.3569
MEAN_ANOMALY   = 172.6928

EPHEMERIS_TYPE = 0
CLASSIFICATION_TYPE = U
NORAD_CAT_ID   = 28059
ELEMENT_SET_NO = 999
REV_AT_EPOCH   = 17149
BSTAR          = .12433E-3
MEAN_MOTION_DOT = .491E-5
MEAN_MOTION_DDOT = 0

CCSDS_OMM_VERS = 2.0
CREATION_DATE  = 
ORIGINATOR     = 

OBJECT_NAME    = CZ-2C R/B
OBJECT_ID      = 2004-012C
CENTER_NAME    = EARTH
REF_FRAME      = TEME
TIME_SYSTEM    = UTC
MEAN_ELEMENT_THEORY = SGP/SGP4

EPOCH          = 2025-11-25T16:23:40.125984
MEAN_MOTION    = 15.53935371
ECCENTRICITY   = .0017591
INCLINATION    = 97.7444
RA_OF_ASC_NODE = 20.9151
ARG_OF_PERICENTER = 336.5513
MEAN_ANOMALY   = 23.4935

EPHEMERIS_TYPE = 0
CLASSIFICATION_TYPE = U
NORAD_CAT_ID   = 28222
ELEMENT_SET_NO = 999
REV_AT_EPOCH   = 18807
BSTAR          = .64595E-3
MEAN_MOTION_DOT = .41987E-3
MEAN_MOTION_DDOT = 0

CCSDS_OMM_VERS = 2.0
CREATION_DATE  = 
ORIGINATOR     = 

OBJECT_NAME    = SL-16 R/B
OBJECT_ID      = 2004-021B
CENTER_NAME    = EARTH
REF_FRAME      = TEME
TIME_SYSTEM    = UTC
MEAN_ELEMENT_THEORY = SGP/SGP4

EPOCH          = 2025-11-25T17:18:16.698240
MEAN_MOTION    = 14.14581554
ECCENTRICITY   = .0006069
INCLINATION    = 71.0012
RA_OF_ASC_NODE = 90.6775
ARG_OF_PERICENTER = 219.1958
MEAN_ANOMALY   = 140.8726

EPHEMERIS_TYPE = 0
CLASSIFICATION_TYPE = U
NORAD_CAT_ID   = 28353
ELEMENT_SET_NO = 999
REV_AT_EPOCH   = 10813
BSTAR          = .9E-4
MEAN_MOTION_DOT = .125E-5
MEAN_MOTION_DDOT = 0

CCSDS_OMM_VERS = 2.0
CREATION_DATE  = 
ORIGINATOR     = 

OBJECT_NAME    = CZ-4B R/B
OBJECT_ID      = 2004-035C
CENTER_NAME    = EARTH
REF_FRAME      = TEME
TIME_SYSTEM    = UTC
MEAN_ELEMENT_THEORY = SGP/SGP4

EPOCH          = 2025-11-25T15:45:19.378656
MEAN_MOTION    = 15.26982094
ECCENTRICITY   = .0032982
INCLINATION    = 97.3627
RA_OF_ASC_NODE = 0.2315
ARG_OF_PERICENTER = 340.4741
MEAN_ANOMALY   = 19.5233

EPHEMERIS_TYPE = 0
CLASSIFICATION_TYPE = U
NORAD_CAT_ID   = 28415
ELEMENT_SET_NO = 999
REV_AT_EPOCH   = 16402
BSTAR          = .40062E-3
MEAN_MOTION_DOT = .10709E-3
MEAN_MOTION_DDOT = 0

CCSDS_OMM_VERS = 2.0
CREATION_DATE  = 
ORIGINATOR     = 

OBJECT_NAME    = CZ-2C R/B
OBJECT_ID      = 2004-046B
CENTER_NAME    = EARTH
REF_FRAME      = TEME
TIME_SYSTEM    = UTC
MEAN_ELEMENT_THEORY = SGP/SGP4

EPOCH          = 2025-11-25T18:42:25.732800
MEAN_MOTION    = 14.26929475
ECCENTRICITY   = .0140746
INCLINATION    = 98.1974
RA_OF_ASC_NODE = 246.2130
ARG_OF_PERICENTER = 102.0399
MEAN_ANOMALY   = 259.6596

EPHEMERIS_TYPE = 0
CLASSIFICATION_TYPE = U
NORAD_CAT_ID   = 28480
ELEMENT_SET_NO = 999
REV_AT_EPOCH   = 9368
BSTAR          = .10476E-3
MEAN_MOTION_DOT = .243E-5
MEAN_MOTION_DDOT = 0

CCSDS_OMM_VERS = 2.0
CREATION_DATE  = 
ORIGINATOR     = 

OBJECT_NAME    = ARIANE 5 R/B
OBJECT_ID      = 2004-049H
CENTER_NAME    = EARTH
REF_FRAME      = TEME
TIME_SYSTEM    = UTC
MEAN_ELEMENT_THEORY = SGP/SGP4

EPOCH          = 2025-11-25T09:40:12.484992
MEAN_MOTION    = 14.84955746
ECCENTRICITY   = .0083991
INCLINATION    = 98.2520
RA_OF_ASC_NODE = 129.0643
ARG_OF_PERICENTER = 329.8213
MEAN_ANOMALY   = 29.8176

EPHEMERIS_TYPE = 0
CLASSIFICATION_TYPE = U
NORAD_CAT_ID   = 28499
ELEMENT_SET_NO = 999
REV_AT_EPOCH   = 13031
BSTAR          = .12663E-3
MEAN_MOTION_DOT = .1083E-4
MEAN_MOTION_DDOT = 0

