ENVISAT                 
1 27386U 02009A   25329.86938479  .00000177  00000+0  71058-4 0  9991
2 27386  98.3576 281.0399 0001260  80.6564 338.0395 14.38989890244242
IDEFIX & ARIANE 42P R/B 
1 27422U 02021B   25329.80146263  .00000381  00000+0  16162-3 0  9993
2 27422  98.5764 264.7144 0012590 129.4387 230.7912 14.30931777229163
AQUA                    
1 27424U 02022A   25329.85034480  .00001347  00000+0  28002-3 0  9997
2 27424  98.4014 290.4579 0000592  87.9739 331.4843 14.61749004253565
CZ-4B R/B               
1 27432U 02024C   25329.74986259  .00000062  00000+0  55127-4 0  9998
2 27432  98.9024  18.5790 0049409 319.0679 152.1451 14.14522719214544
MIDORI II (ADEOS-II)    
1 27597U 02056A   25329.84321931  .00000369  00000+0  16327-3 0  9994
2 27597  98.7613 282.7132 0000754  21.2568 338.8645 14.29188725195460
H-2A R/B                
1 27601U 02056E   25329.79207404  .00000372  00000+0  14462-3 0  9994
2 27601  98.3043 289.2263 0071451 110.8020 315.3298 14.33656789199223
CZ-4B R/B               
1 28059U 03049C   25329.81481847  .00000491  00000+0  12433-3 0  9991
2 28059  98.6778 315.7407 0048020 187.3569 172.6928 14.54886532171494
CZ-2C R/B               
1 28222U 04012C   25329.68310331  .00041987  00000+0  64595-3 0  9999
2 28222  97.7444  20.9151 0017591 336.5513  23.4935 15.53935371188072
SL-16 R/B               
1 28353U 04021B   25329.72102660  .00000125  00000+0  90000-4 0  9993
2 28353  71.0012  90.6775 0006069 219.1958 140.8726 14.14581554108133
CZ-4B R/B               
1 28415U 04035C   25329.65647429  .00010709  00000+0  40062-3 0  9997
2 28415  97.3627   0.2315 0032982 340.4741  19.5233 15.26982094164026
CZ-2C R/B               
1 28480U 04046B   25329.77946450  .00000243  00000+0  10476-3 0  9998
2 28480  98.1974 246.2130 0140746 102.0399 259.6596 14.26929475 93683
ARIANE 5 R/B            
1 28499U 04049H   25329.40292228  .00001083  00000+0  12663-3 0  9991
2 28499  98.2520 129.0643 0083991 329.8213  29.8176 14.84955746130317
